#aV2023  5 18  0  0  0.00000000     288 DD+AD WGS84 FIT  NGA
## 2262 345600.00000000   300.00000000 60082 0.0000000000000
+   32     1  2  3  4  5  6  7  8  9 10 11 12 13 14 15 16 17
+         18 19 20 21 22 23 24 25 26 27 28 29 30 31 32  0  0
+          0  0  0  0  0  0  0  0  0  0  0  0  0  0  0  0  0
+          0  0  0  0  0  0  0  0  0  0  0  0  0  0  0  0  0
+          0  0  0  0  0  0  0  0  0  0  0  0  0  0  0  0  0
++         2  2  2  2  2  2  2  2  2  2  2  2  2  2  2  2  2
++         2  2  2  2  2  2  2  2  2  2  2  2  2  2  2  0  0
++         0  0  0  0  0  0  0  0  0  0  0  0  0  0  0  0  0
++         0  0  0  0  0  0  0  0  0  0  0  0  0  0  0  0  0
++         0  0  0  0  0  0  0  0  0  0  0  0  0  0  0  0  0
%c cc cc ccc ccc cccc cccc cccc cccc ccccc ccccc ccccc ccccc
%c cc cc ccc ccc cccc cccc cccc cccc ccccc ccccc ccccc ccccc
%f  0.0000000  0.000000000  0.00000000000  0.000000000000000
%f  0.0000000  0.000000000  0.00000000000  0.000000000000000
%i    0    0    0    0      0      0      0      0         0
%i    0    0    0    0      0      0      0      0         0
/*      NGA, ST. LOUIS,MO.                                  
/*   EPHEMERIS COMPUTED FROM 2 DAYS OF DATA                 
/*   EPOCHA v8 SMOOTHER                                     
/*   G2139 IERS2010 SATIGS SATAPC                           
*  2023  5 18  8 35  0.00000000
P  1 -16945.685131 -13838.660541 -15642.114131    184.495588                    
V  1  18891.259887   2716.096925 -23031.263821     -0.027884                    
P  2  11814.105706 -12492.300349 -19719.931767   -595.030108                    
V  2  25910.320654   3816.867730  12987.679153      0.039030                    
P  3 -12928.238971 -22161.839939   6977.437343   -299.833461                    
V  3  -1104.690306  -9152.916651 -30424.866079      0.114293                    
P  4  -9188.476241 -12331.841104  21659.096757     44.457081                    
V  4  18726.722930 -20110.829540  -3618.441884      0.098190                    
P  5   3826.758391  24740.616957   8516.412976   -127.638830                    
V  5  -6601.455790  -9268.293393  29407.738908     -0.014544                    
P  6 -20804.929313   6329.668437  15377.905701    587.923944                    
V  6 -18738.775009  -4888.860364 -23335.327829     -0.005018                    
P  7 -25787.337548  -6933.851075   3037.498081    175.376255                    
V  7   3684.150814  -2036.574661  30902.177462     -0.094060                    
P  8   1049.134847 -20325.721342 -16924.048301   -122.976538                    
V  8  15031.925340 -15525.573610  20046.453934     -0.018640                    
P  9 -16859.114477  -2036.351918  20360.802682   -156.288785                    
V  9  15577.744237 -20867.633964  10731.906572      0.084385                    
P 10  13852.661232  -5030.166022 -21918.198199    -37.408404                    
V 10   9723.518454  26478.180031   -231.180035     -0.015796                    
P 11  -6798.716107  13800.193011  21656.403652   -201.122990                    
V 11 -26662.797348  -6609.317056  -4196.575257     -0.139769                    
P 12   9929.873059  24255.892393   4285.174228   -377.450892                    
V 12   -907.748822   6257.487015 -31194.328144     -0.046669                    
P 13  -9947.195051  20902.702936 -13009.783520    521.574246                    
V 13 -13574.050175   9274.150038  25825.967465      0.053508                    
P 14 -15572.407535   1770.652744 -21443.541263     60.788127                    
V 14  -8132.154409 -26045.489155   3604.542703      0.127523                    
P 15   2258.664499  20385.613139 -17193.955791     40.595318                    
V 15 -13194.906161  16692.707564  18819.864449      0.034653                    
P 16   1622.976733 -23745.454574  10993.884446   -499.998369                    
V 16   6337.229589  13405.090153  27707.921755      0.033521                    
P 17 -21199.107431  11628.747021 -10684.770240    715.217765                    
V 17   8258.504047 -11691.557169 -27891.115479      0.014053                    
P 18  26229.140790   4594.533870   -946.706015   -271.072379                    
V 18    724.201012   2460.914658  31911.413713     -0.157480                    
P 19 -20472.149078  16361.331130  -3376.234104    318.450944                    
V 19   1102.186180  -4697.256673 -31841.798436      0.051111                    
P 20  -1602.042649  21008.685092  16324.144483    432.954929                    
V 20 -11834.822687 -16997.824170  20565.439726     -0.020728                    
P 21  -9521.950647 -14673.402956 -19678.661323    153.754125                    
V 21  25926.395375   1590.585480 -12523.748331     -0.002221                    
P 22  18430.491438 -18999.726084    568.801336    483.250195                    
V 22   2193.977364   1932.037430 -31882.215203      0.063495                    
P 23  16935.684164   8099.926683 -18844.783796     25.165909                    
V 23   7638.939132  22622.408684  16436.705953      0.031480                    
P 24  13418.133009  14694.792419 -18139.872001   -192.911910                    
V 24 -22320.140860   -369.122516 -16729.040111     -0.137943                    
P 25  16201.207056  16121.624812  13437.566994    443.633140                    
V 25   3973.408358  17193.660947 -24578.738005      0.026840                    
P 26   8894.658840 -15489.722184  19438.092326    240.641734                    
V 26  11622.941999  22344.854347  12751.418224     -0.005150                    
P 27  11079.965857 -22403.975551  -8593.269757     35.063598                    
V 27   8917.375720  -6456.442220  29582.987005     -0.080079                    
P 28  21947.550465  -6350.161669  13516.358029     78.529003                    
V 28  16708.792715   4647.582377 -24909.170550      0.031368                    
P 29  14486.376641   5929.203837  21416.526547   -599.829168                    
V 29 -18790.894886  19756.077019   7135.738569     -0.013577                    
P 30 -25395.062583   1203.748718  -8028.614247   -516.524836                    
V 30  -9540.189211  -5026.971265  28748.992536      0.021762                    
P 31  13434.408165 -11539.781465  19756.431730   -216.338711                    
V 31  24630.203321   6085.652045 -12646.147994     -0.007593                    
P 32  20199.074850 -14395.993122  -9040.151776   -479.292483                    
V 32  -5377.125511  10868.614039 -28940.756833     -0.091659                    
EOF
